CCSDS_OEM_VERS = 1.0
CREATION_DATE  = 2017-05-11T11:35:34
ORIGINATOR     = GMAT USER

META_START
OBJECT_NAME          = MOPSSat_alt_35785_km_RAAN_180_071
OBJECT_ID            = SatId
CENTER_NAME          = Earth
REF_FRAME            = EME2000
TIME_SYSTEM          = UTC
START_TIME           = 2017-01-01T00:00:00.000
USEABLE_START_TIME   = 2017-01-01T00:00:00.000
USEABLE_STOP_TIME    = 2017-01-02T00:00:00.000
STOP_TIME            = 2017-01-02T00:00:00.000
INTERPOLATION        = Lagrange
INTERPOLATION_DEGREE = 7 
META_STOP


                                                                                   

2017-01-01T20:37:30.000  -2.716932344112550e+04   3.220776603040533e+04  -8.095866140029634e-02  -2.350158460130999e+00  -1.985660128116188e+00   1.821624861466905e-04
2017-01-01T20:37:40.000  -2.719281778565647e+04   3.218790085111907e+04  -7.913683566789523e-02  -2.348710284348054e+00  -1.987375593237656e+00   1.822026471214962e-04
2017-01-01T20:37:50.000  -2.721629764239604e+04   3.216801852226045e+04  -7.731460881392450e-02  -2.347260854645164e+00  -1.989090002418088e+00   1.822427067840671e-04
2017-01-01T20:38:00.000  -2.723976299880856e+04   3.214811905439311e+04  -7.549198185168732e-02  -2.345810171791813e+00  -1.990803354738562e+00   1.822826650966263e-04
2017-01-01T20:38:10.000  -2.726321384235337e+04   3.212820245809982e+04  -7.366895579580678e-02  -2.344358236558883e+00  -1.992515649279787e+00   1.823225220214287e-04
2017-01-01T20:38:20.000  -2.728665016026134e+04   3.210826874417625e+04  -7.184553167980712e-02  -2.342905049732783e+00  -1.994226885105786e+00   1.823622775204056e-04
2017-01-01T20:38:30.000  -2.731007193983662e+04   3.208831792337085e+04  -7.002171053245250e-02  -2.341450612096490e+00  -1.995937061285929e+00   1.824019315556542e-04
2017-01-01T20:38:40.000  -2.733347916833529e+04   3.206835000648896e+04  -6.819749338723789e-02  -2.339994924437135e+00  -1.997646176886084e+00   1.824414840892381e-04
2017-01-01T20:38:50.000  -2.735687183350254e+04   3.204836500393468e+04  -6.637288124053339e-02  -2.338537987512604e+00  -1.999354231007817e+00   1.824809350840823e-04
2017-01-01T20:39:00.000  -2.738024992303393e+04   3.202836292617006e+04  -6.454787509354122e-02  -2.337079802085015e+00  -2.001061222749079e+00   1.825202845030753e-04
2017-01-01T20:39:10.000  -2.740361342471472e+04   3.200834378359664e+04  -6.272247594146811e-02  -2.335620368912084e+00  -2.002767151214362e+00   1.825595323093011e-04
2017-01-01T20:39:20.000  -2.742696232604505e+04   3.198830758687324e+04  -6.089668480262702e-02  -2.334159688770287e+00  -2.004472015487341e+00   1.825986784654138e-04
2017-01-01T20:39:30.000  -2.745029661454952e+04   3.196825434665406e+04  -5.907050269442815e-02  -2.332697762435775e+00  -2.006175814653476e+00   1.826377229341534e-04
2017-01-01T20:39:40.000  -2.747361627770800e+04   3.194818407364702e+04  -5.724393063873482e-02  -2.331234590688620e+00  -2.007878547794957e+00   1.826766656782313e-04
2017-01-01T20:39:50.000  -2.749692130297541e+04   3.192809677859903e+04  -5.541696966043299e-02  -2.329770174311744e+00  -2.009580213992150e+00   1.827155066603576e-04
2017-01-01T20:40:00.000  -2.752021167780401e+04   3.190799247227495e+04  -5.358962078558748e-02  -2.328304514089385e+00  -2.011280812325228e+00   1.827542458432848e-04
2017-01-01T20:40:10.000  -2.754348738965200e+04   3.188787116545045e+04  -5.176188504078524e-02  -2.326837610806577e+00  -2.012980341874793e+00   1.827928831898197e-04
2017-01-01T20:40:20.000  -2.756674842606717e+04   3.186773286884065e+04  -4.993376344661171e-02  -2.325369465243947e+00  -2.014678801727988e+00   1.828314186629732e-04
2017-01-01T20:40:30.000  -2.758999477463086e+04   3.184757759314735e+04  -4.810525702199145e-02  -2.323900078181155e+00  -2.016376190974404e+00   1.828698522258558e-04
2017-01-01T20:40:40.000  -2.761322642295809e+04   3.182740534905915e+04  -4.627636678419106e-02  -2.322429450396913e+00  -2.018072508706089e+00   1.829081838416813e-04
2017-01-01T20:40:50.000  -2.763644335875236e+04   3.180721614720278e+04  -4.444709374444377e-02  -2.320957582665424e+00  -2.019767754021550e+00   1.829464134738490e-04
2017-01-01T20:41:00.000  -2.765964556972303e+04   3.178700999821563e+04  -4.261743891449969e-02  -2.319484475761678e+00  -2.021461926019722e+00   1.829845410858138e-04
2017-01-01T20:41:10.000  -2.768283304357707e+04   3.176678691275325e+04  -4.078740330728878e-02  -2.318010130461996e+00  -2.023155023799362e+00   1.830225666410730e-04
2017-01-01T20:41:20.000  -2.770600576799502e+04   3.174654690150834e+04  -3.895698793871854e-02  -2.316534547545412e+00  -2.024847046457296e+00   1.830604901031234e-04
2017-01-01T20:41:30.000  -2.772916373061364e+04   3.172628997522825e+04  -3.712619382916520e-02  -2.315057727794956e+00  -2.026537993087149e+00   1.830983114354376e-04
2017-01-01T20:41:40.000  -2.775230691909352e+04   3.170601614465487e+04  -3.529502199807720e-02  -2.313579671993264e+00  -2.028227862784289e+00   1.831360306015711e-04
2017-01-01T20:41:50.000  -2.777543532081559e+04   3.168572542079344e+04  -3.346347348814013e-02  -2.312100380942181e+00  -2.029916654623659e+00   1.831736475646783e-04
2017-01-01T20:42:00.000  -2.779854892324931e+04   3.166541781458715e+04  -3.163154933600071e-02  -2.310619855439032e+00  -2.031604367686665e+00   1.832111622881016e-04
2017-01-01T20:42:10.000  -2.782164771381550e+04   3.164509333703794e+04  -2.979925058314856e-02  -2.309138096285437e+00  -2.033291001051162e+00   1.832485747351519e-04
2017-01-01T20:42:20.000  -2.784473168041796e+04   3.162475199873923e+04  -2.796657823377256e-02  -2.307655104253236e+00  -2.034976553830266e+00   1.832858848699626e-04
2017-01-01T20:42:30.000  -2.786780081091314e+04   3.160439381034180e+04  -2.613353329679342e-02  -2.306170880118464e+00  -2.036661025133635e+00   1.833230926566377e-04
2017-01-01T20:42:40.000  -2.789085509323054e+04   3.158401878244864e+04  -2.430011677634593e-02  -2.304685424653672e+00  -2.038344414076263e+00   1.833601980594454e-04
2017-01-01T20:42:50.000  -2.791389451507216e+04   3.156362692587637e+04  -2.246632969547178e-02  -2.303198738646999e+00  -2.040026719756524e+00   1.833972010423354e-04
2017-01-01T20:43:00.000  -2.793691906413620e+04   3.154321825146179e+04  -2.063217307854279e-02  -2.301710822888059e+00  -2.041707941272522e+00   1.834341015692975e-04
2017-01-01T20:43:10.000  -2.795992872811637e+04   3.152279277006091e+04  -1.879764795124001e-02  -2.300221678167876e+00  -2.043388077722022e+00   1.834708996043612e-04
2017-01-01T20:43:20.000  -2.798292349448246e+04   3.150235049274760e+04  -1.696275535824132e-02  -2.298731305293361e+00  -2.045067128186445e+00   1.835075951112413e-04
2017-01-01T20:43:30.000  -2.800590335077663e+04   3.148189143054690e+04  -1.512749633941530e-02  -2.297239705067877e+00  -2.046745091752488e+00   1.835441880538148e-04
2017-01-01T20:43:40.000  -2.802886828449640e+04   3.146141559453977e+04  -1.329187193919237e-02  -2.295746878298871e+00  -2.048421967503591e+00   1.835806783959326e-04
2017-01-01T20:43:50.000  -2.805181828361303e+04   3.144092299540120e+04  -1.145588316514295e-02  -2.294252825764194e+00  -2.050097754557786e+00   1.836170661022571e-04
2017-01-01T20:44:00.000  -2.807475333605309e+04   3.142041364386187e+04  -9.619531029394520e-03  -2.292757548245771e+00  -2.051772452029834e+00   1.836533511374233e-04
2017-01-01T20:44:10.000  -2.809767342981588e+04   3.139988755060418e+04  -7.782816539273786e-03  -2.291261046522010e+00  -2.053446059039811e+00   1.836895334662324e-04
2017-01-01T20:44:20.000  -2.812057855267460e+04   3.137934472652566e+04  -5.945740721043540e-03  -2.289763321387014e+00  -2.055118574691279e+00   1.837256130531544e-04
2017-01-01T20:44:30.000  -2.814346869239879e+04   3.135878518254407e+04  -4.108304602292844e-03  -2.288264373636366e+00  -2.056789998087532e+00   1.837615898627058e-04
2017-01-01T20:44:40.000  -2.816634383675357e+04   3.133820892959639e+04  -2.270509211916619e-03  -2.286764204067056e+00  -2.058460328331543e+00   1.837974638594377e-04
2017-01-01T20:44:50.000  -2.818920397328172e+04   3.131761597883889e+04  -4.323555978335289e-04  -2.285262813492075e+00  -2.060129564510041e+00   1.838332350076185e-04
2017-01-01T20:45:00.000  -2.821204908959789e+04   3.129700634137859e+04   1.406155196861392e-03  -2.283760202720825e+00  -2.061797705715007e+00   1.838689032716723e-04
2017-01-01T20:45:10.000  -2.823487917327258e+04   3.127638002837871e+04   3.245022124509196e-03  -2.282256372566818e+00  -2.063464751035195e+00   1.839044686160035e-04
2017-01-01T20:45:20.000  -2.825769421234734e+04   3.125573705059335e+04   5.084244174382175e-03  -2.280751323813737e+00  -2.065130699593754e+00   1.839399310057877e-04
2017-01-01T20:45:30.000  -2.828049419481933e+04   3.123507741883268e+04   6.923820331193384e-03  -2.279245057249369e+00  -2.066795550510590e+00   1.839752904061796e-04
2017-01-01T20:45:40.000  -2.830327910875819e+04   3.121440114385802e+04   8.763749584471268e-03  -2.277737573657943e+00  -2.068459302910901e+00   1.840105467824932e-04
2017-01-01T20:45:50.000  -2.832604894200885e+04   3.119370823664741e+04   1.060403090477986e-02  -2.276228873839492e+00  -2.070121955903472e+00   1.840457000997433e-04
2017-01-01T20:46:00.000  -2.834880368241275e+04   3.117299870819899e+04   1.244466326136083e-02  -2.274718958595533e+00  -2.071783508596833e+00   1.840807503229865e-04
2017-01-01T20:46:10.000  -2.837154331780699e+04   3.115227256953029e+04   1.428564562215340e-02  -2.273207828728991e+00  -2.073443960099201e+00   1.841156974173198e-04
2017-01-01T20:46:20.000  -2.839426783580775e+04   3.113152983187951e+04   1.612697693604710e-02  -2.271695485058896e+00  -2.075103309502653e+00   1.841505413475464e-04
2017-01-01T20:46:30.000  -2.841697722410285e+04   3.111077050643518e+04   1.796865615676916e-02  -2.270181928400660e+00  -2.076761555904497e+00   1.841852820786270e-04
